OBJECT_NAME,OBJECT_ID,EPOCH,MEAN_MOTION,ECCENTRICITY,INCLINATION,RA_OF_ASC_NODE,ARG_OF_PERICENTER,MEAN_ANOMALY,EPHEMERIS_TYPE,CLASSIFICATION_TYPE,NORAD_CAT_ID,ELEMENT_SET_NO,REV_AT_EPOCH,BSTAR,MEAN_MOTION_DOT,MEAN_MOTION_DDOT
LINGQIAO VIDEO A,2015-057B,2026-05-17T13:04:30.868608,14.77346284,.0017308,97.6612,133.8606,14.4794,345.6909,0,U,40959,999,57088,.84801E-4,.555E-5,0
LINGQIAO VIDEO B,2015-057C,2026-05-17T12:34:05.318688,14.77451292,.0017464,97.6580,135.0122,14.6238,345.5475,0,U,40960,999,57092,.68655E-4,.442E-5,0
JILIN-1,2015-057D,2026-05-17T11:35:41.694144,14.78104492,.0017157,97.6511,138.3764,9.0780,351.0738,0,U,40961,999,57107,.76851E-4,.508E-5,0
FOX-1A (AO-85),2015-058D,2026-05-16T23:01:53.010048,14.90773374,.0129128,64.7768,16.0156,68.8392,292.6462,0,U,40967,999,10891,.20908E-3,.2238E-4,0
SINOD-D 1,2015-058E,2026-05-17T07:45:27.281088,14.95649294,.0117659,64.7761,355.5486,65.4694,295.8632,0,U,40968,999,11204,.25586E-3,.3096E-4,0
ELEKTRO-L 2,2015-074A,2026-05-17T04:01:46.412256,1.00271972,.0001502,6.6158,70.8948,257.5246,312.3954,0,U,41105,999,3819,0,-.111E-5,0
DAMPE,2015-078A,2026-05-17T12:14:16.403712,15.30702492,.0011813,97.4560,142.8276,176.4460,183.6867,0,U,41173,999,57985,.36772E-4,.1015E-4,0
ORBCOMM FM114,2015-081A,2026-05-17T07:06:13.187808,14.58820211,.0001519,47.0031,148.0496,31.4429,328.6548,0,U,41179,999,55324,.69107E-4,.155E-5,0
ORBCOMM FM110,2015-081D,2026-05-17T10:07:11.525088,14.58826414,.0004024,47.0003,146.9049,289.0366,71.0084,0,U,41182,999,55313,.10729E-3,.335E-5,0
ORBCOMM FM112,2015-081F,2026-05-17T11:03:54.083232,14.58852963,.0002527,47.0017,55.5359,53.1323,306.9794,0,U,41184,999,55446,.10221E-3,.312E-5,0
ORBCOMM FM113,2015-081G,2026-05-17T12:07:39.774144,14.58820974,.0001137,47.0015,55.6881,41.7679,318.3293,0,U,41185,999,55445,.73912E-4,.178E-5,0
ORBCOMM FM108,2015-081J,2026-05-17T12:52:24.026880,14.58823661,.0002038,47.0058,327.1082,54.6263,305.4813,0,U,41187,999,55560,.10634E-3,.331E-5,0
ORBCOMM FM117,2015-081K,2026-05-17T12:02:39.084000,14.58821409,.0002475,47.0022,325.9147,62.9944,297.1194,0,U,41188,999,55564,.10366E-3,.318E-5,0
ORBCOMM FM116,2015-081L,2026-05-17T11:34:49.967328,14.58830479,.0002252,47.0026,55.7937,290.3680,69.6964,0,U,41189,999,55445,.93319E-4,.27E-5,0
HORYU-4,2016-012D,2026-05-17T13:06:00.419616,15.79274004,.0004741,30.9887,300.9018,65.0940,295.0210,0,U,41340,999,56594,.65633E-3,.125194E-2,0
ZIYUAN 3-02 (ZY 3-02),2016-033A,2026-05-17T12:56:33.954432,15.21480706,.0013422,97.3840,213.9002,48.3132,311.9250,0,U,41556,999,55332,.176E-3,.3897E-4,0
CARTOSAT-2C,2016-040A,2026-05-17T11:59:42.218016,15.19225501,.0008557,97.4507,197.8947,236.4225,123.6193,0,U,41599,999,54905,.12641E-3,.2596E-4,0
LAPAN-A3,2016-040E,2026-05-17T12:17:47.991264,15.32897329,.0012039,97.1487,134.6725,120.4047,239.8387,0,U,41603,999,55011,.74386E-4,.2293E-4,0
GAOFEN-3,2016-049A,2026-05-17T11:43:02.087904,14.42211770,.0000952,98.4016,145.7370,82.7513,277.3785,0,U,41727,999,51422,.66053E-4,.174E-5,0
CAS-2T & KS-1Q,2016-066G,2026-05-17T11:41:43.423296,14.44596606,.0341273,98.3826,213.5716,222.5644,134.8633,0,U,41847,999,50036,.98199E-4,.629E-5,0
YUNHAI-1 01,2016-068A,2026-05-17T12:10:37.610400,14.32717288,.0006433,98.5838,148.7990,117.4325,242.7514,0,U,41857,999,49743,.1887E-3,.47E-5,0
RESOURCESAT-2A,2016-074A,2026-05-17T12:35:45.984192,14.21607575,.0002757,98.7537,211.2780,142.6848,217.4522,0,U,41877,999,48994,.23864E-3,.479E-5,0
TANSAT,2016-081A,2026-05-17T13:03:43.809120,14.59923335,.0021614,98.5360,136.8974,46.3073,313.9912,0,U,41898,999,50015,.96285E-4,.412E-5,0
JILIN-1 03,2017-002B,2026-05-17T12:13:48.974304,15.40786891,.0003593,97.1950,145.0447,287.9857,72.0998,0,U,41914,999,51713,.20262E-3,.8215E-4,0
CARTOSAT-2D,2017-008A,2026-05-17T11:11:41.088192,15.19243647,.0004404,97.4129,197.3407,5.2673,354.8607,0,U,41948,999,51291,.12953E-3,.2662E-4,0
CARTOSAT-2E,2017-036C,2026-05-17T11:36:47.558592,15.19224337,.0004283,97.4302,197.7875,64.0882,296.0794,0,U,42767,999,49348,.19137E-3,.3963E-4,0
