LINGQIAO VIDEO A        
1 40959U 15057B   26137.54480172  .00000555  00000+0  84801-4 0  9994
2 40959  97.6612 133.8606 0017308  14.4794 345.6909 14.77346284570885
LINGQIAO VIDEO B        
1 40960U 15057C   26137.52367267  .00000442  00000+0  68655-4 0  9997
2 40960  97.6580 135.0122 0017464  14.6238 345.5475 14.77451292570924
JILIN-1                 
1 40961U 15057D   26137.48312146  .00000508  00000+0  76851-4 0  9999
2 40961  97.6511 138.3764 0017157   9.0780 351.0738 14.78104492571075
FOX-1A (AO-85)          
1 40967U 15058D   26136.95964132  .00002238  00000+0  20908-3 0  9998
2 40967  64.7768  16.0156 0129128  68.8392 292.6462 14.90773374108919
SINOD-D 1               
1 40968U 15058E   26137.32323242  .00003096  00000+0  25586-3 0  9992
2 40968  64.7761 355.5486 0117659  65.4694 295.8632 14.95649294112045
ELEKTRO-L 2             
1 41105U 15074A   26137.16789829 -.00000111  00000+0  00000+0 0  9999
2 41105   6.6158  70.8948 0001502 257.5246 312.3954  1.00271972 38191
DAMPE                   
1 41173U 15078A   26137.50991208  .00001015  00000+0  36772-4 0  9995
2 41173  97.4560 142.8276 0011813 176.4460 183.6867 15.30702492579857
ORBCOMM FM114           
1 41179U 15081A   26137.29598597  .00000155  00000+0  69107-4 0  9997
2 41179  47.0031 148.0496 0001519  31.4429 328.6548 14.58820211553247
ORBCOMM FM110           
1 41182U 15081D   26137.42166117  .00000335  00000+0  10729-3 0  9990
2 41182  47.0003 146.9049 0004024 289.0366  71.0084 14.58826414553139
ORBCOMM FM112           
1 41184U 15081F   26137.46104263  .00000312  00000+0  10221-3 0  9992
2 41184  47.0017  55.5359 0002527  53.1323 306.9794 14.58852963554467
ORBCOMM FM113           
1 41185U 15081G   26137.50532146  .00000178  00000+0  73912-4 0  9990
2 41185  47.0015  55.6881 0001137  41.7679 318.3293 14.58820974554457
ORBCOMM FM108           
1 41187U 15081J   26137.53638920  .00000331  00000+0  10634-3 0  9994
2 41187  47.0058 327.1082 0002038  54.6263 305.4813 14.58823661555608
ORBCOMM FM117           
1 41188U 15081K   26137.50184125  .00000318  00000+0  10366-3 0  9992
2 41188  47.0022 325.9147 0002475  62.9944 297.1194 14.58821409555642
ORBCOMM FM116           
1 41189U 15081L   26137.48252277  .00000270  00000+0  93319-4 0  9991
2 41189  47.0026  55.7937 0002252 290.3680  69.6964 14.58830479554451
HORYU-4                 
1 41340U 16012D   26137.54583819  .00125194  00000+0  65633-3 0  9991
2 41340  30.9887 300.9018 0004741  65.0940 295.0210 15.79274004565947
ZIYUAN 3-02 (ZY 3-02)   
1 41556U 16033A   26137.53928188  .00003897  00000+0  17600-3 0  9990
2 41556  97.3840 213.9002 0013422  48.3132 311.9250 15.21480706553327
CARTOSAT-2C             
1 41599U 16040A   26137.49979419  .00002596  00000+0  12641-3 0  9998
2 41599  97.4507 197.8947 0008557 236.4225 123.6193 15.19225501549055
LAPAN-A3                
1 41603U 16040E   26137.51236101  .00002293  00000+0  74386-4 0  9990
2 41603  97.1487 134.6725 0012039 120.4047 239.8387 15.32897329550114
GAOFEN-3                
1 41727U 16049A   26137.48821861  .00000174  00000+0  66053-4 0  9993
2 41727  98.4016 145.7370 0000952  82.7513 277.3785 14.42211770514222
CAS-2T & KS-1Q          
1 41847U 16066G   26137.48730814  .00000629  00000+0  98199-4 0  9993
2 41847  98.3826 213.5716 0341273 222.5644 134.8633 14.44596606500369
YUNHAI-1 01             
1 41857U 16068A   26137.50737975  .00000470  00000+0  18870-3 0  9995
2 41857  98.5838 148.7990 0006433 117.4325 242.7514 14.32717288497430
RESOURCESAT-2A          
1 41877U 16074A   26137.52483778  .00000479  00000+0  23864-3 0  9993
2 41877  98.7537 211.2780 0002757 142.6848 217.4522 14.21607575489948
TANSAT                  
1 41898U 16081A   26137.54425705  .00000412  00000+0  96285-4 0  9997
2 41898  98.5360 136.8974 0021614  46.3073 313.9912 14.59923335500151
JILIN-1 03              
1 41914U 17002B   26137.50959461  .00008215  00000+0  20262-3 0  9997
2 41914  97.1950 145.0447 0003593 287.9857  72.0998 15.40786891517134
CARTOSAT-2D             
1 41948U 17008A   26137.46644778  .00002662  00000+0  12953-3 0  9995
2 41948  97.4129 197.3407 0004404   5.2673 354.8607 15.19243647512919
CARTOSAT-2E             
1 42767U 17036C   26137.48388378  .00003963  00000+0  19137-3 0  9995
2 42767  97.4302 197.7875 0004283  64.0882 296.0794 15.19224337493484
